{
  "type": "FeatureCollection",
  "features": [
    {
      "type": "Feature",
      "geometry": {
        "type": "Point",
        "coordinates": [
          73.8116904,
          18.5675594
        ]
      },
      "properties": {
        "class": "roadside_dump",
        "view_count": 4,
        "method": "intersection",
        "confidence": 1.0,
        "first_seen": "2025-09-17T06:01:36.320Z",
        "last_seen": "2025-09-17T06:01:37.988Z",
        "intersection_spread_m": 7.72,
        "mean_range_m": 13.29,
        "image_ids": [
          "1337054387997608",
          "765068579834233",
          "2406247403123891",
          "24511646765122743"
        ],
        "detection_ids": [
          "F3",
          "F5",
          "F7",
          "F9"
        ],
        "sequence_ids": [
          "BEohfHsAZiWFlVXwp7Gz4N"
        ],
        "bearings_deg": [
          122.19,
          110.91,
          80.17,
          29.2
        ]
      }
    },
    {
      "type": "Feature",
      "geometry": {
        "type": "LineString",
        "coordinates": [
          [
            73.811581590207,
            18.56764951415
          ],
          [
            73.8119037,
            18.567459
          ]
        ]
      },
      "properties": {
        "kind": "ray",
        "image_id": "1337054387997608",
        "class": "roadside_dump",
        "bearing_deg": 122.19
      }
    },
    {
      "type": "Feature",
      "geometry": {
        "type": "LineString",
        "coordinates": [
          [
            73.811582,
            18.567594048186
          ],
          [
            73.8119369,
            18.5674673
          ]
        ]
      },
      "properties": {
        "kind": "ray",
        "image_id": "765068579834233",
        "class": "roadside_dump",
        "bearing_deg": 110.91
      }
    },
    {
      "type": "Feature",
      "geometry": {
        "type": "LineString",
        "coordinates": [
          [
            73.811582,
            18.567538949723
          ],
          [
            73.811955,
            18.567603
          ]
        ]
      },
      "properties": {
        "kind": "ray",
        "image_id": "2406247403123891",
        "class": "roadside_dump",
        "bearing_deg": 80.17
      }
    },
    {
      "type": "Feature",
      "geometry": {
        "type": "LineString",
        "coordinates": [
          [
            73.81158339631,
            18.56748171439
          ],
          [
            73.8117661,
            18.5677984
          ]
        ]
      },
      "properties": {
        "kind": "ray",
        "image_id": "24511646765122743",
        "class": "roadside_dump",
        "bearing_deg": 29.2
      }
    }
  ]
}